ONEWEB-0551             
1 56053U 23043H   24081.46290609  .00000122  00000+0  28992-3 0  9999
2 56053  87.8978  61.9639 0001677  79.9825 280.1495 13.15549087 48883
ONEWEB-0552             
1 56054U 23043J   24081.39782713  .00000093  00000+0  19301-3 0  9995
2 56054  87.9262  46.7627 0001928  72.1515 287.9829 13.21828014 50199
ONEWEB-0553             
1 56055U 23043K   24081.91063112  .00000439  00000+0  11148-2 0  9993
2 56055  87.9121  31.4324 0002739 108.5917 251.5512 13.16598438 52343
ONEWEB-0554             
1 56056U 23043L   24081.89797048 -.00000052  00000+0 -17048-3 0  9992
2 56056  87.9121  31.4539 0002396  66.9532 293.1851 13.16594315 52327
ONEWEB-0555             
1 56057U 23043M   24081.40398946  .00000044  00000+0  80969-4 0  9996
2 56057  87.9122  31.5257 0002504  92.1731 267.9686 13.16594916 51354
ONEWEB-0557             
1 56058U 23043N   24081.57023281 -.00000037  00000+0 -13010-3 0  9998
2 56058  87.9121  31.5190 0002978  87.8731 272.2741 13.16594137 51374
ONEWEB-0558             
1 56059U 23043P   24081.39153154  .00000080  00000+0  16211-3 0  9994
2 56059  87.9263  46.7444 0001429  72.6153 287.5137 13.21827277 50201
ONEWEB-0559             
1 56060U 23043Q   24081.60756814  .00000085  00000+0  17423-3 0  9993
2 56060  87.9262  46.7006 0001932  61.1409 298.9919 13.21826314 50241
ONEWEB-0566             
1 56061U 23043R   24081.60127452  .00000116  00000+0  24879-3 0  9992
2 56061  87.9260  46.7032 0001296  66.7186 293.4084 13.21824815 50220
ONEWEB-0568             
1 56062U 23043S   24081.81563840  .00000020  00000+0  18588-4 0  9996
2 56062  87.9121  31.4340 0002137  89.3646 270.7730 13.16594655 52337
ONEWEB-0574             
1 56063U 23043T   24081.59495022  .00000075  00000+0  15077-3 0  9997
2 56063  87.9260  46.7004 0001802  85.0728 275.0612 13.21828386 50264
ONEWEB-0575             
1 56064U 23043U   24081.58131481  .00000106  00000+0  24290-3 0  9995
2 56064  87.9122  31.4886 0002517  78.6782 281.4631 13.16594715 51389
ONEWEB-0576             
1 56065U 23043V   24081.41032409  .00000013  00000+0 -90338-6 0  9995
2 56065  87.9120  31.5217 0002275  87.6128 272.5263 13.16594742 51351
ONEWEB-0577             
1 56066U 23043W   24081.56865059  .00000009  00000+0 -10915-4 0  9993
2 56066  87.9120  31.4894 0002823  76.1437 284.0008 13.16594937 51404
ONEWEB-0578             
1 56067U 23043X   24081.43095851 -.00000013  00000+0 -64001-4 0  9996
2 56067  87.9262  46.7285 0001989  86.7305 273.4056 13.21826948 50206
ONEWEB-0579             
1 56068U 23043Y   24081.42149417  .00000001  00000+0 -28632-4 0  9990
2 56068  87.9259  46.7304 0001851  67.9946 292.1385 13.21823884 50215
ONEWEB-0581             
1 56069U 23043Z   24081.57498282  .00000002  00000+0 -28284-4 0  9998
2 56069  87.9121  31.5175 0002393  69.4401 290.6987 13.16594843 51370
ONEWEB-0609             
1 56070U 23043AA  24081.49142019 -.00000006  00000+0 -50260-4 0  9999
2 56070  87.8978  61.9426 0001820  85.2814 274.8524 13.15549895 48929
ONEWEB-0613             
1 56071U 23043AB  24081.48666878  .00000076  00000+0  16736-3 0  9997
2 56071  87.8982  61.9362 0001683  74.4774 285.6542 13.15549898 48929
ONEWEB-0630             
1 56072U 23043AC  24081.48191523  .00000092  00000+0  21138-3 0  9998
2 56072  87.8978  61.9314 0001514  77.1458 282.9841 13.15548008 48917
ONEWEB-0632             
1 56073U 23043AD  24081.47717171  .00000189  00000+0  46764-3 0  9990
2 56073  87.8977  61.9510 0002125  75.4543 284.6823 13.15548611 48919
ONEWEB-0633             
1 56074U 23043AE  24081.47082810  .00000159  00000+0  38817-3 0  9993
2 56074  87.8973  61.9369 0001273  82.2439 277.8836 13.15547453 48899
ONEWEB-0634             
1 56075U 23043AF  24081.45656954  .00000099  00000+0  23017-3 0  9997
2 56075  87.8980  61.9449 0001736  96.0991 264.0338 13.15548487 48889
ONEWEB-0635             
1 56076U 23043AG  24081.45181564  .00002630  00000+0  69517-2 0  9995
2 56076  87.8975  62.0028 0002513  85.3300 274.8117 13.15536560 48915
ONEWEB-0636             
1 56077U 23043AH  24081.44389522 -.00000019  00000+0 -85170-4 0  9995
2 56077  87.8980  61.9739 0002238  79.6303 280.5079 13.15547752 48895
ONEWEB-0637             
1 56078U 23043AJ  24081.43754756 -.00000060  00000+0 -19257-3 0  9998
2 56078  87.8980  61.9501 0002313  78.1322 282.0067 13.15549419 48911
ONEWEB-0647             
1 56079U 23043AK  24081.50886147 -.00000107  00000+0 -31823-3 0  9992
2 56079  87.8977  61.9569 0002087  75.9177 284.2185 13.15548092 48914
ONEWEB-0651             
1 56080U 23043AL  24081.50410334 -.00000029  00000+0 -11026-3 0  9991
2 56080  87.8980  61.9320 0002336  81.3695 278.7700 13.15547399 50113
ONEWEB-0718             
1 56081U 23043AM  24081.49934066 -.00000055  00000+0 -18011-3 0  9993
2 56081  87.8980  61.9198 0001791 104.2487 255.8842 13.15549670 48928
GSLV R/B                
1 56082U 23043AN  24081.85485686  .00162294  00000+0  14437-2 0  9992
2 56082  87.4098  12.7219 0017819  61.1094 299.1961 15.67808581 55970
ONEWEB-0561             
1 56710U 23068A   24081.42779707 -.00039994  00000+0 -81012-1 0  9994
2 56710  88.2866  76.4054 0002782  33.7641 326.3677 13.34016228 41557
ONEWEB-0668             
1 56711U 23068B   24081.57735732  .00000191  00000+0  46555-3 0  9991
2 56711  87.9112  31.5057 0001987 100.9773 259.1582 13.16595722 44194
ONEWEB-0676             
1 56712U 23068C   24081.55201017  .00000174  00000+0  42164-3 0  9997
2 56712  87.9119  31.5079 0002216  69.9495 290.1874 13.16594197 44113
ONEWEB-0677             
1 56713U 23068D   24081.51707293  .00000073  00000+0  12039-3 0  9997
2 56713  88.3200  74.7914 0002545  80.2781 279.8648 13.34779319 41757
ONEWEB-0678             
1 56714U 23068E   24081.46765536  .00000204  00000+0  50708-3 0  9997
2 56714  87.8980  61.8894 0001665  76.4568 283.6748 13.15547316 41778
ONEWEB-0679             
1 56715U 23068F   24081.83067051  .00000061  00000+0  12707-3 0  9994
2 56715  87.9116  31.4609 0002601  91.2327 268.9102 13.16596482 44870
ONEWEB-0680             
1 56716U 23068G   24081.40968137 -.00000043  00000+0 -13468-3 0  9990
2 56716  87.9261  46.7705 0002195 105.1989 254.9388 13.21826541 43064
ONEWEB-0681             
1 56717U 23068H   24081.43490073 -.00000026  00000+0 -94138-4 0  9998
2 56717  87.9262  46.7533 0003018  69.5754 290.5703 13.21827180 43059
ONEWEB-0682             
1 56718U 23068J   24081.49380322  .00000068  00000+0  14769-3 0  9995
2 56718  87.8979  61.9282 0002306 100.4322 259.7068 13.15550801 41942
ONEWEB-0683             
1 56719U 23068K   24081.43913200 -.00000052  00000+0 -17127-3 0  9993
2 56719  87.8977  61.9118 0002117  93.5041 266.6331 13.15550687 41907
ONEWEB-0684             
1 56720U 23068L   24081.44705964  .00000022  00000+0  25501-4 0  9993
2 56720  87.8977  61.9863 0001345  88.3121 271.8163 13.15548921 41739
ONEWEB-0686             
1 56721U 23068M   24081.82038283  .00000027  00000+0  38209-4 0  9993
2 56721  87.9117  31.4994 0001745  81.7808 278.3520 13.16594705 44865
ONEWEB-0694             
1 56722U 23068N   24081.39053461  .00000009  00000+0 -93604-5 0  9993
2 56722  87.9115  31.5006 0002122  97.0524 263.0848 13.16594118 44169
ONEWEB-0696             
1 56723U 23068P   24081.48034140  .00000156  00000+0  38128-3 0  9997
2 56723  87.8979  61.9544 0001888  74.3995 285.7343 13.15547947 41850
ONEWEB-0703             
1 56724U 23068Q   24081.41377954  .00000114  00000+0  26983-3 0  9994
2 56724  87.8979  61.9886 0002151  49.4600 310.6717 13.15547525 41732
ONEWEB-0721             
1 56725U 23068R   24081.30471631  .00005458  00000+0  64563-3 0  9992
2 56725  86.6823  12.7995 0008910 212.6396 147.4278 14.84429804 45477
